NORAD_CAT_ID,OBJECT_NAME,OBJECT_TYPE,EPOCH,MEAN_MOTION,ECCENTRICITY,INCLINATION,RA_OF_ASC_NODE,ARG_OF_PERICENTER,MEAN_ANOMALY,BSTAR,MEAN_MOTION_DOT,MEAN_MOTION_DDOT,TLE_LINE0,TLE_LINE1,TLE_LINE2,SEMIMAJOR_AXIS,PERIOD,APOGEE,PERIGEE,DECAYED
51147.0,STARLINK-3352,PAYLOAD,2023-07-13 16:05:08,15.08834611,8.63e-05,53.2183,343.7075,106.451,253.6577,3.5142e-05,2.72e-06,0.0,0 STARLINK-3352,1 51147U 22005AV  23194.67023793  .00000272  00000-0  35142-4 0  9993,2 51147  53.2183 343.7075 0000863 106.4510 253.6577 15.08834611 83277,6917.897,95.438,540.359,539.165,0.0
51147.0,STARLINK-3352,PAYLOAD,2023-07-13 17:40:31,15.08840517,9.47e-05,53.2178,343.4091,103.7025,256.4073,0.00013911,1.927e-05,0.0,0 STARLINK-3352,1 51147U 22005AV  23194.73647628  .00001927  00000-0  13911-3 0  9996,2 51147  53.2178 343.4091 0000947 103.7025 256.4073 15.08840517 83285,6917.879,95.438,540.399,539.089,0.0
51147.0,STARLINK-3352,PAYLOAD,2023-07-14 19:06:41,15.08854248,8.97e-05,53.2169,338.65,98.9301,261.1793,0.00080705,0.00012585,0.0,0 STARLINK-3352,1 51147U 22005AV  23195.79631720  .00012585  00000-0  80705-3 0  9996,2 51147  53.2169 338.6500 0000897  98.9301 261.1793 15.08854248 83448,6917.837,95.437,540.322,539.081,0.0
51147.0,STARLINK-3352,PAYLOAD,2023-07-15 03:03:37,15.08843719,0.0001428,53.2175,337.1614,108.3891,251.7256,0.00035991,5.445e-05,0.0,0 STARLINK-3352,1 51147U 22005AV  23196.12752008  .00005445  00000-0  35991-3 0  9991,2 51147  53.2175 337.1614 0001428 108.3891 251.7256 15.08843719 83491,6917.869,95.437,540.722,538.746,0.0
51147.0,STARLINK-3352,PAYLOAD,2023-07-15 20:32:51,15.0888295,0.0001098,53.2177,333.8937,93.0423,267.0695,0.0013002,0.0002049,0.0,0 STARLINK-3352,1 51147U 22005AV  23196.85614835  .00020490  00000-0  13002-2 0  9991,2 51147  53.2177 333.8937 0001098  93.0423 267.0695 15.08882950 83608,6917.749,95.435,540.374,538.855,0.0
51147.0,STARLINK-3352,PAYLOAD,2023-07-16 09:15:57,15.08838858,0.0001458,53.2181,331.5128,108.8126,251.3024,5.2414e-05,5.46e-06,0.0,0 STARLINK-3352,1 51147U 22005AV  23197.38607870  .00000546  00000-0  52414-4 0  9993,2 51147  53.2181 331.5128 0001458 108.8126 251.3024 15.08838858 83683,6917.884,95.438,540.758,538.74,0.0
51147.0,STARLINK-3352,PAYLOAD,2023-07-16 17:12:53,15.08831246,0.0001215,53.2184,330.0266,96.3568,263.7563,-4.4412e-05,-9.94e-06,0.0,0 STARLINK-3352,1 51147U 22005AV  23197.71728347 -.00000994  00000-0 -44412-4 0  9991,2 51147  53.2184 330.0266 0001215  96.3568 263.7563 15.08831246 83730,6917.907,95.438,540.613,538.932,0.0
51147.0,STARLINK-3352,PAYLOAD,2023-07-17 15:28:17,15.08851062,0.0001218,53.218,325.8661,93.8331,266.28,0.00079336,0.00012365,0.0,0 STARLINK-3352,1 51147U 22005AV  23198.64464472  .00012365  00000-0  79336-3 0  9995,2 51147  53.2180 325.8661 0001218  93.8331 266.2800 15.08851062 83875,6917.847,95.437,540.554,538.869,0.0
51147.0,STARLINK-3352,PAYLOAD,2023-07-18 08:57:31,15.08849617,0.0001105,53.2188,322.5939,97.3402,262.7716,0.00033513,5.051e-05,0.0,0 STARLINK-3352,1 51147U 22005AV  23199.37328244  .00005051  00000-0  33513-3 0  9993,2 51147  53.2188 322.5939 0001105  97.3402 262.7716 15.08849617 83980,6917.851,95.437,540.48,538.952,0.0
51147.0,STARLINK-3352,PAYLOAD,2023-07-18 15:19:03,15.08864271,0.0001003,53.2185,321.4062,93.4187,266.6919,0.00088692,0.00013865,0.0,0 STARLINK-3352,1 51147U 22005AV  23199.63823876  .00013865  00000-0  88692-3 0  9993,2 51147  53.2185 321.4062 0001003  93.4187 266.6919 15.08864271 84023,6917.806,95.436,540.365,538.977,0.0
51147.0,STARLINK-3352,PAYLOAD,2023-07-19 07:12:55,15.08837387,0.0001139,53.2183,318.4317,131.0567,229.0523,0.00078887,0.00012288,0.0,0 STARLINK-3352,1 51147U 22005AV  23200.30064462  .00012288  00000-0  78887-3 0  9991,2 51147  53.2183 318.4317 0001139 131.0567 229.0523 15.08837387 84124,6917.888,95.438,540.541,538.965,0.0
51147.0,STARLINK-3352,PAYLOAD,2023-07-19 16:45:14,15.08830803,9.55e-05,53.2182,316.6466,105.456,254.6537,9.3971e-05,1.208e-05,0.0,0 STARLINK-3352,1 51147U 22005AV  23200.69808915  .00001208  00000-0  93971-4 0  9994,2 51147  53.2182 316.6466 0000955 105.4560 254.6537 15.08830803 84182,6917.909,95.438,540.434,539.113,0.0
51147.0,STARLINK-3352,PAYLOAD,2023-07-20 13:25:15,15.08843549,9.82e-05,53.218,312.7811,99.1362,260.9741,0.00050636,7.781e-05,0.0,0 STARLINK-3352,1 51147U 22005AV  23201.55921147  .00007781  00000-0  50636-3 0  9995,2 51147  53.2180 312.7811 0000982  99.1362 260.9741 15.08843549 84313,6917.87,95.437,540.414,539.055,0.0
51147.0,STARLINK-3352,PAYLOAD,2023-07-21 14:51:25,15.0885829,8.79e-05,53.2172,308.0249,89.5884,270.5209,0.00054205,8.354e-05,0.0,0 STARLINK-3352,1 51147U 22005AV  23202.61904513  .00008354  00000-0  54205-3 0  9994,2 51147  53.2172 308.0249 0000879  89.5884 270.5209 15.08858290 84476,6917.824,95.436,540.298,539.081,0.0
51147.0,STARLINK-3352,PAYLOAD,2023-07-23 14:33:00,15.08845291,0.0001056,53.2169,299.1033,81.9271,278.1841,0.00027126,4.033e-05,0.0,0 STARLINK-3352,1 51147U 22005AV  23204.60625007  .00004033  00000-0  27126-3 0  9995,2 51147  53.2169 299.1033 0001056  81.9271 278.1841 15.08845291 83659,6917.864,95.437,540.46,538.999,0.0
51147.0,STARLINK-3352,PAYLOAD,2023-07-25 11:03:47,15.08837266,9.4e-05,53.2167,290.7758,95.9569,264.153,-3.6353e-05,-8.66e-06,0.0,0 STARLINK-3352,1 51147U 22005AV  23206.46096978 -.00000866  00000-0 -36353-4 0  9995,2 51147  53.2167 290.7758 0000940  95.9569 264.1530 15.08837266 83938,6917.889,95.438,540.404,539.103,0.0
51147.0,STARLINK-3352,PAYLOAD,2023-07-26 06:08:25,15.08832061,8.49e-05,53.2172,287.2084,91.9691,268.1399,0.0001208,1.635e-05,0.0,0 STARLINK-3352,1 51147U 22005AV  23207.25585156  .00001635  00000-0  12080-3 0  9997,2 51147  53.2172 287.2084 0000849  91.9691 268.1399 15.08832061 84056,6917.905,95.438,540.357,539.182,0.0
51147.0,STARLINK-3352,PAYLOAD,2023-07-26 14:05:20,15.08842459,9.77e-05,53.2174,285.7206,98.9995,261.1108,0.00018949,2.729e-05,0.0,0 STARLINK-3352,1 51147U 22005AV  23207.58704471  .00002729  00000-0  18949-3 0  9991,2 51147  53.2174 285.7206 0000977  98.9995 261.1108 15.08842459 85226,6917.873,95.437,540.414,539.062,0.0
51147.0,STARLINK-3352,PAYLOAD,2023-07-27 04:23:49,15.08838707,8.99e-05,53.2162,283.0473,89.7448,270.3648,0.00012443,1.693e-05,0.0,0 STARLINK-3352,1 51147U 22005AV  23208.18321015  .00001693  00000-0  12443-3 0  9999,2 51147  53.2162 283.0473 0000899  89.7448 270.3648 15.08838707 85316,6917.884,95.438,540.371,539.127,0.0
51147.0,STARLINK-3352,PAYLOAD,2023-07-27 13:56:07,15.08841508,8.99e-05,53.2164,281.2633,87.5723,272.5372,0.00012427,1.691e-05,0.0,0 STARLINK-3352,1 51147U 22005AV  23208.58064811  .00001691  00000-0  12427-3 0  9991,2 51147  53.2164 281.2633 0000899  87.5723 272.5372 15.08841508 84251,6917.876,95.437,540.363,539.119,0.0
51147.0,STARLINK-3352,PAYLOAD,2023-07-27 21:53:04,15.08832715,0.0001109,53.2158,279.7747,93.9634,266.1485,3.483e-05,2.66e-06,0.0,0 STARLINK-3352,1 51147U 22005AV  23208.91185647  .00000266  00000-0  34830-4 0  9999,2 51147  53.2158 279.7747 0001109  93.9634 266.1485 15.08832715 84309,6917.903,95.438,540.535,539.0,0.0
51147.0,STARLINK-3352,PAYLOAD,2023-07-28 13:46:56,15.08833421,0.0001345,53.2158,276.8012,102.8543,257.26,-6.0836e-05,-1.256e-05,0.0,0 STARLINK-3352,1 51147U 22005AV  23209.57426162 -.00001256  00000-0 -60836-4 0  9999,2 51147  53.2158 276.8012 0001345 102.8543 257.2600 15.08833421 84409,6917.9,95.438,540.696,538.835,0.0
51147.0,STARLINK-3352,PAYLOAD,2023-07-29 10:26:55,15.08861984,0.000125,53.2175,272.9367,77.7972,282.316,-0.00019622,-3.411e-05,0.0,0 STARLINK-3352,1 51147U 22005AV  23210.43536829 -.00003411  00000-0 -19622-3 0  9999,2 51147  53.2175 272.9367 0001250  77.7972 282.3160 15.08861984 85652,6917.813,95.436,540.543,538.813,0.0
51147.0,STARLINK-3352,PAYLOAD,2023-07-30 10:17:43,15.08838253,0.0001078,53.2167,268.476,82.6541,277.4574,0.0001391,1.927e-05,0.0,0 STARLINK-3352,1 51147U 22005AV  23211.42897765  .00001927  00000-0  13910-3 0  9990,2 51147  53.2167 268.4760 0001078  82.6541 277.4574 15.08838253 85809,6917.886,95.438,540.496,539.005,0.0
51147.0,STARLINK-3352,PAYLOAD,2023-07-31 10:08:30,15.08847613,0.0001097,53.2169,264.0153,91.3832,268.7286,9.3125e-05,1.195e-05,0.0,0 STARLINK-3352,1 51147U 22005AV  23212.42257151  .00001195  00000-0  93125-4 0  9994,2 51147  53.2169 264.0153 0001097  91.3832 268.7286 15.08847613 85959,6917.857,95.437,540.481,538.963,0.0
51147.0,STARLINK-3352,PAYLOAD,2023-08-01 13:10:04,15.08838146,0.0001121,53.2168,258.9595,92.0982,268.0139,1.8535e-05,7e-08,0.0,0 STARLINK-3352,1 51147U 22005AV  23213.54865858  .00000007  00000-0  18535-4 0  9990,2 51147  53.2168 258.9595 0001121  92.0982 268.0139 15.08838146 86123,6917.886,95.438,540.527,538.976,0.0
51147.0,STARLINK-3352,PAYLOAD,2023-08-03 03:19:19,15.08835667,0.0001077,53.2168,251.8233,97.4824,262.6291,7.3802e-05,8.87e-06,0.0,0 STARLINK-3352,1 51147U 22005AV  23215.13841990  .00000887  00000-0  73802-4 0  9992,2 51147  53.2168 251.8233 0001077  97.4824 262.6291 15.08835667 86368,6917.894,95.438,540.504,539.014,0.0
51147.0,STARLINK-3352,PAYLOAD,2023-08-04 03:10:07,15.08828804,0.0001082,53.2168,247.3632,95.4797,264.6319,0.00010837,1.437e-05,0.0,0 STARLINK-3352,1 51147U 22005AV  23216.13202607  .00001437  00000-0  10837-3 0  9999,2 51147  53.2168 247.3632 0001082  95.4797 264.6319 15.08828804 86519,6917.915,95.438,540.528,539.031,0.0
51147.0,STARLINK-3352,PAYLOAD,2023-08-05 03:00:53,15.08841906,0.0001034,53.2161,242.9024,97.1918,262.9192,8.4195e-05,1.053e-05,0.0,0 STARLINK-3352,1 51147U 22005AV  23217.12561992  .00001053  00000-0  84195-4 0  9997,2 51147  53.2161 242.9024 0001034  97.1918 262.9192 15.08841906 86663,6917.875,95.437,540.455,539.024,0.0
51147.0,STARLINK-3352,PAYLOAD,2023-08-06 07:37:50,15.08837712,0.0001121,53.2166,237.55,86.867,273.245,4.7219e-05,4.64e-06,0.0,0 STARLINK-3352,1 51147U 22005AV  23218.31794407  .00000464  00000-0  47219-4 0  9999,2 51147  53.2166 237.5500 0001121  86.8670 273.2450 15.08837712 86846,6917.887,95.438,540.528,538.977,0.0
